{
  "norad_id": 38337,
  "name": "GCOM-W1 (SHIZUKU)",
  "history": [
    {
      "epoch": "2026-03-28T19:48:54.535680Z",
      "apogee_km": 703.3392317173339,
      "perigee_km": 701.6044825473355,
      "latitude_deg": 53.44170333855979,
      "longitude_deg": -105.02062734674819,
      "height_km": 710.4005266782349,
      "semi_major_axis_km": 7080.608857132334,
      "eccentricity": 0.0001225,
      "inclination_deg": 98.2078,
      "raan_deg": 29.6026,
      "arg_perigee_deg": 73.0027,
      "mean_anomaly_deg": 341.1456,
      "mean_motion_rev_day": 14.57125156
    },
    {
      "epoch": "2026-03-28T19:48:54.537408Z",
      "apogee_km": 703.3394127478223,
      "perigee_km": 701.6055131025423,
      "latitude_deg": 53.4417068082234,
      "longitude_deg": -105.02063600468988,
      "height_km": 710.4015063622679,
      "semi_major_axis_km": 7080.609462925182,
      "eccentricity": 0.00012244,
      "inclination_deg": 98.2078,
      "raan_deg": 29.6026,
      "arg_perigee_deg": 72.9968,
      "mean_anomaly_deg": 341.1515,
      "mean_motion_rev_day": 14.57124969
    },
    {
      "epoch": "2026-03-30T02:55:44.224032Z",
      "apogee_km": 703.3188875919495,
      "perigee_km": 701.6092056632315,
      "latitude_deg": 10.461886363084675,
      "longitude_deg": 157.9094731496608,
      "height_km": 704.3015730706227,
      "semi_major_axis_km": 7080.60104662759,
      "eccentricity": 0.00012073,
      "inclination_deg": 98.208,
      "raan_deg": 30.8801,
      "arg_perigee_deg": 73.3766,
      "mean_anomaly_deg": 297.2605,
      "mean_motion_rev_day": 14.57127567
    },
    {
      "epoch": "2026-03-30T15:12:34.229664Z",
      "apogee_km": 703.3097786777525,
      "perigee_km": 701.6122761066654,
      "latitude_deg": 6.639032361308608,
      "longitude_deg": 156.17586169181908,
      "height_km": 704.969173446653,
      "semi_major_axis_km": 7080.598027392209,
      "eccentricity": 0.00011987,
      "inclination_deg": 98.2081,
      "raan_deg": 31.3843,
      "arg_perigee_deg": 73.4178,
      "mean_anomaly_deg": 99.783,
      "mean_motion_rev_day": 14.57128499
    },
    {
      "epoch": "2026-03-30T19:36:35.742240Z",
      "apogee_km": 703.3037854889972,
      "perigee_km": 701.6161960022228,
      "latitude_deg": 53.71382266716089,
      "longitude_deg": -102.05610829894017,
      "height_km": 710.4736138131576,
      "semi_major_axis_km": 7080.596990745609,
      "eccentricity": 0.00011917,
      "inclination_deg": 98.2081,
      "raan_deg": 31.565,
      "arg_perigee_deg": 73.4377,
      "mean_anomaly_deg": 340.9909,
      "mean_motion_rev_day": 14.57128819
    },
    {
      "epoch": "2026-03-31T09:03:11.651616Z",
      "apogee_km": 703.2954993956682,
      "perigee_km": 701.618106723723,
      "latitude_deg": 67.61114240433237,
      "longitude_deg": -92.05457813105292,
      "height_km": 713.4719333786428,
      "semi_major_axis_km": 7080.593803059695,
      "eccentricity": 0.00011845,
      "inclination_deg": 98.2082,
      "raan_deg": 32.1169,
      "arg_perigee_deg": 73.5627,
      "mean_anomaly_deg": 37.4222,
      "mean_motion_rev_day": 14.57129803
    },
    {
      "epoch": "2026-04-01T15:00:14.090112Z",
      "apogee_km": 703.2903697574902,
      "perigee_km": 701.6136862756557,
      "latitude_deg": 6.42245584019612,
      "longitude_deg": 159.2278828212831,
      "height_km": 704.9603382547882,
      "semi_major_axis_km": 7080.589028016572,
      "eccentricity": 0.0001184,
      "inclination_deg": 98.2084,
      "raan_deg": 33.3467,
      "arg_perigee_deg": 74.3614,
      "mean_anomaly_deg": 99.057,
      "mean_motion_rev_day": 14.57131277
    },
    {
      "epoch": "2026-04-02T14:04:40.645920Z",
      "apogee_km": 703.2820805418187,
      "perigee_km": 701.6097884643486,
      "latitude_deg": 6.114934637192348,
      "longitude_deg": 173.07237875270198,
      "height_km": 704.9670163529343,
      "semi_major_axis_km": 7080.582934503083,
      "eccentricity": 0.00011809,
      "inclination_deg": 98.2086,
      "raan_deg": 34.2941,
      "arg_perigee_deg": 75.0451,
      "mean_anomaly_deg": 98.6821,
      "mean_motion_rev_day": 14.57133158
    },
    {
      "epoch": "2026-04-03T20:54:21.547008Z",
      "apogee_km": 703.2254999466477,
      "perigee_km": 701.6380364288216,
      "latitude_deg": 66.52417503852408,
      "longitude_deg": -129.52039279427967,
      "height_km": 713.1305004837476,
      "semi_major_axis_km": 7080.568768187734,
      "eccentricity": 0.0001121,
      "inclination_deg": 98.2088,
      "raan_deg": 35.56,
      "arg_perigee_deg": 74.6333,
      "mean_anomaly_deg": 353.205,
      "mean_motion_rev_day": 14.57137531
    },
    {
      "epoch": "2026-04-04T07:13:19.231392Z",
      "apogee_km": 703.2250503202758,
      "perigee_km": 701.6339054213686,
      "latitude_deg": 18.498898740999163,
      "longitude_deg": -82.21777805490404,
      "height_km": 704.8218603276606,
      "semi_major_axis_km": 7080.566477870822,
      "eccentricity": 0.00011236,
      "inclination_deg": 98.2088,
      "raan_deg": 35.9836,
      "arg_perigee_deg": 75.3642,
      "mean_anomaly_deg": 85.9206,
      "mean_motion_rev_day": 14.57138238
    }
  ]
}